<?xml version="1.0" encoding="UTF-8"?>
<kml xmlns="http://www.opengis.net/kml/2.2" xmlns:gx="http://www.google.com/kml/ext/2.2" xmlns:kml="http://www.opengis.net/kml/2.2" xmlns:atom="http://www.w3.org/2005/Atom">
<Document>
	<name>Mapa_Preliminar_Ladrilleras.kml</name>
	<open>1</open>
	<atom:link rel="app" href="https://www.google.com/earth/about/versions/#earth-pro" title="Google Earth Pro 7.3.7.1155"></atom:link>
	<StyleMap id="m_ylw-pushpin">
		<Pair>
			<key>normal</key>
			<styleUrl>#s_ylw-pushpin</styleUrl>
		</Pair>
		<Pair>
			<key>highlight</key>
			<styleUrl>#s_ylw-pushpin_hl0</styleUrl>
		</Pair>
	</StyleMap>
	<StyleMap id="m_ylw-pushpin0">
		<Pair>
			<key>normal</key>
			<styleUrl>#s_ylw-pushpin0</styleUrl>
		</Pair>
		<Pair>
			<key>highlight</key>
			<styleUrl>#s_ylw-pushpin_hl</styleUrl>
		</Pair>
	</StyleMap>
	<Style id="s_ylw-pushpin">
		<IconStyle>
			<scale>1.1</scale>
			<Icon>
				<href>http://maps.google.com/mapfiles/kml/pushpin/ylw-pushpin.png</href>
			</Icon>
			<hotSpot x="20" y="2" xunits="pixels" yunits="pixels"/>
		</IconStyle>
		<PolyStyle>
			<color>ff0000aa</color>
		</PolyStyle>
	</Style>
	<Style id="s_ylw-pushpin0">
		<IconStyle>
			<scale>1.1</scale>
			<Icon>
				<href>http://maps.google.com/mapfiles/kml/pushpin/ylw-pushpin.png</href>
			</Icon>
			<hotSpot x="20" y="2" xunits="pixels" yunits="pixels"/>
		</IconStyle>
		<PolyStyle>
			<color>ff0000aa</color>
		</PolyStyle>
	</Style>
	<Style id="s_ylw-pushpin_hl">
		<IconStyle>
			<scale>1.3</scale>
			<Icon>
				<href>http://maps.google.com/mapfiles/kml/pushpin/ylw-pushpin.png</href>
			</Icon>
			<hotSpot x="20" y="2" xunits="pixels" yunits="pixels"/>
		</IconStyle>
		<PolyStyle>
			<color>ff0000aa</color>
		</PolyStyle>
	</Style>
	<Style id="s_ylw-pushpin_hl0">
		<IconStyle>
			<scale>1.3</scale>
			<Icon>
				<href>http://maps.google.com/mapfiles/kml/pushpin/ylw-pushpin.png</href>
			</Icon>
			<hotSpot x="20" y="2" xunits="pixels" yunits="pixels"/>
		</IconStyle>
		<PolyStyle>
			<color>ff0000aa</color>
		</PolyStyle>
	</Style>
	<Folder>
		<name>Mapa_Preliminar_Ladrilleras</name>
		<open>1</open>
		<Placemark>
			<name>Polígono 1 La selva</name>
			<styleUrl>#m_ylw-pushpin0</styleUrl>
			<Polygon>
				<tessellate>1</tessellate>
				<outerBoundaryIs>
					<LinearRing>
						<coordinates>
							-101.6281843773401,21.17327146777759,0 -101.6280362890365,21.17295900406713,0 -101.6278500764034,21.17302741059669,0 -101.6280050510197,21.17331303601054,0 -101.6281843773401,21.17327146777759,0 
						</coordinates>
					</LinearRing>
				</outerBoundaryIs>
			</Polygon>
		</Placemark>
		<Placemark>
			<name>Polígono 2 La selva</name>
			<styleUrl>#m_ylw-pushpin0</styleUrl>
			<Polygon>
				<tessellate>1</tessellate>
				<outerBoundaryIs>
					<LinearRing>
						<coordinates>
							-101.6290726511772,21.17330723081014,0 -101.62923528933,21.17295462420645,0 -101.6290944684457,21.17290599461557,0 -101.6288217374548,21.17282462183409,0 -101.628799694597,21.17284406098836,0 -101.6285562103878,21.17289211400751,0 -101.6282294770491,21.17308827477483,0 -101.6290726511772,21.17330723081014,0 
						</coordinates>
					</LinearRing>
				</outerBoundaryIs>
			</Polygon>
		</Placemark>
		<Placemark>
			<name>Polígono 3 La Selva ll</name>
			<styleUrl>#m_ylw-pushpin</styleUrl>
			<Polygon>
				<tessellate>1</tessellate>
				<outerBoundaryIs>
					<LinearRing>
						<coordinates>
							-101.6341196570511,21.17563560484689,0 -101.6343438224256,21.17504817300702,0 -101.6341728362463,21.17462317970063,0 -101.6336269791175,21.17453913582986,0 -101.6335516660611,21.17432313947545,0 -101.6331090418865,21.17448753900643,0 -101.632687256755,21.17519888863184,0 -101.6341196570511,21.17563560484689,0 
						</coordinates>
					</LinearRing>
				</outerBoundaryIs>
			</Polygon>
		</Placemark>
		<Placemark>
			<name>Polígono 4  El Valladito</name>
			<styleUrl>#m_ylw-pushpin0</styleUrl>
			<Polygon>
				<tessellate>1</tessellate>
				<outerBoundaryIs>
					<LinearRing>
						<coordinates>
							-101.641663390257,21.17686779981058,0 -101.6420119056932,21.17678575639431,0 -101.6422570269114,21.17660285514637,0 -101.6424650505284,21.17673966065347,0 -101.6426154174462,21.17642305341014,0 -101.6423829845937,21.17632072081312,0 -101.6425229982066,21.17599415576013,0 -101.6427656429043,21.17611404337406,0 -101.6428147423941,21.17605087288774,0 -101.6425614789901,21.17591674598662,0 -101.6429775159304,21.17507265989574,0 -101.6408228119904,21.17448855448942,0 -101.640144970071,21.17525198893747,0 -101.6405458786494,21.17569715771041,0 -101.6396512930164,21.17650569592362,0 -101.638620342132,21.17738662303235,0 -101.6392822900526,21.17793921066298,0 -101.6396648101666,21.17862069096017,0 -101.6398570066461,21.17852269904025,0 -101.6395442485399,21.17778988752066,0 -101.6395520085836,21.17779877386126,0 -101.641663390257,21.17686779981058,0 
						</coordinates>
					</LinearRing>
				</outerBoundaryIs>
			</Polygon>
		</Placemark>
		<Placemark>
			<name>Polígono 5 El Valladito</name>
			<styleUrl>#m_ylw-pushpin0</styleUrl>
			<Polygon>
				<tessellate>1</tessellate>
				<outerBoundaryIs>
					<LinearRing>
						<coordinates>
							-101.6378856082551,21.17630524182246,0 -101.6380533778971,21.17651443555514,0 -101.6387115819157,21.17599667119555,0 -101.6389762091198,21.17561329817918,0 -101.6387958480433,21.1754454385322,0 -101.6388414010857,21.17536303470518,0 -101.638563925909,21.17509709139742,0 -101.6378856082551,21.17630524182246,0 
						</coordinates>
					</LinearRing>
				</outerBoundaryIs>
			</Polygon>
		</Placemark>
		<Placemark>
			<name>Polígono 6 Ladrilleras de la Patiña</name>
			<styleUrl>#m_ylw-pushpin0</styleUrl>
			<Polygon>
				<tessellate>1</tessellate>
				<outerBoundaryIs>
					<LinearRing>
						<coordinates>
							-101.703046289916,21.21005004678186,0 -101.7010229149343,21.20988509780727,0 -101.7007379544737,21.21215574048702,0 -101.7006475414929,21.21260442949712,0 -101.7039352143586,21.21321283534438,0 -101.703046289916,21.21005004678186,0 
						</coordinates>
					</LinearRing>
				</outerBoundaryIs>
			</Polygon>
		</Placemark>
		<Placemark>
			<name>Polígono 7 Ladrilleras del refugio</name>
			<styleUrl>#m_ylw-pushpin0</styleUrl>
			<Polygon>
				<tessellate>1</tessellate>
				<outerBoundaryIs>
					<LinearRing>
						<coordinates>
							-101.5523103846608,21.08403074827,0 -101.5512994503833,21.08608435448386,0 -101.5511094835828,21.08643690769679,0 -101.5505952403593,21.08621892060654,0 -101.5497335601387,21.08709596999414,0 -101.550098583574,21.08758906366361,0 -101.5499699158187,21.0879045986852,0 -101.5494496709177,21.0875933346916,0 -101.5488387422499,21.08786157622119,0 -101.5481239700273,21.08782440358705,0 -101.5476120645488,21.08995206764419,0 -101.5497238833656,21.09089168967526,0 -101.5494537448388,21.09168520874144,0 -101.5512374587894,21.09223944897881,0 -101.5514248076471,21.09139524146455,0 -101.5519751610039,21.09158239687919,0 -101.5541563321752,21.08612544489186,0 -101.5526171352045,21.08555029674303,0 -101.5526942440833,21.08492782994183,0 -101.5522420257339,21.08471286801698,0 -101.5523903443795,21.08408606774,0 -101.5523103846608,21.08403074827,0 
						</coordinates>
					</LinearRing>
				</outerBoundaryIs>
			</Polygon>
		</Placemark>
		<Placemark>
			<name>Polígono 8 La selva 2</name>
			<styleUrl>#m_ylw-pushpin0</styleUrl>
			<Polygon>
				<tessellate>1</tessellate>
				<outerBoundaryIs>
					<LinearRing>
						<coordinates>
							-101.6311848102755,21.1704936527895,0 -101.6309425444467,21.1708680287546,0 -101.6309753865336,21.17089326096238,0 -101.6308829109721,21.17109445804947,0 -101.6310442032646,21.17119593658299,0 -101.6311503864481,21.17103419482548,0 -101.6317759167424,21.17129568039055,0 -101.6320517728696,21.17092815734728,0 -101.6311848102755,21.1704936527895,0 
						</coordinates>
					</LinearRing>
				</outerBoundaryIs>
			</Polygon>
		</Placemark>
	</Folder>
</Document>
</kml>
