{"type":"FeatureCollection","features":[{"type":"Feature","geometry":{"type":"Polygon","coordinates":[[[-101.62803651877047,21.172957792960844],[-101.62784919121252,21.17302910555535],[-101.62800526855183,21.173314505385527],[-101.62818365534382,21.17326988570327],[-101.62803651877047,21.172957792960844]]]},"id":"1_00000000000000000000","properties":{"Descriptio":"","Name":"Polígono 1 La selva","clase":"ladrillera","feature_id":"00000000000000000000","par_id":1.0}},{"type":"Feature","geometry":{"type":"Polygon","coordinates":[[[-101.62909330256836,21.172904258614864],[-101.62882133639236,21.17282401219045],[-101.6287990270379,21.17284186562544],[-101.62855822520731,21.1728909013417],[-101.62822827379158,21.17308714565891],[-101.62907099315511,21.17330559831425],[-101.62923601348172,21.17295332322509],[-101.62909330256836,21.172904258614864]]]},"id":"1_00000000000000000001","properties":{"Descriptio":"","Name":"Polígono 2 La selva","clase":"ladrillera","feature_id":"00000000000000000001","par_id":2.0}},{"type":"Feature","geometry":{"type":"Polygon","coordinates":[[[-101.63417224844558,21.174621058226325],[-101.63362820324082,21.174540785218348],[-101.63355241737221,21.174322312936447],[-101.63311098532559,21.1744872318358],[-101.63268735123225,21.175200694178184],[-101.63411868586564,21.175637683787993],[-101.63434170431094,21.175049145182776],[-101.63417224844558,21.174621058226325]]]},"id":"1_00000000000000000002","properties":{"Descriptio":"","Name":"Polígono 3 La Selva ll","clase":"ladrillera","feature_id":"00000000000000000002","par_id":3.0}},{"type":"Feature","geometry":{"type":"Polygon","coordinates":[[[-101.64082073487224,21.17448724528754],[-101.6401429573859,21.175249796998582],[-101.64054431016277,21.175695646964286],[-101.63965244615846,21.17650719239705],[-101.63862238015938,21.177385668433626],[-101.6392823504672,21.177938565625205],[-101.63966581581414,21.178620850924567],[-101.63985759242928,21.17852278366381],[-101.6395499165837,21.17780038665298],[-101.64166355698579,21.17686838992878],[-101.6420113489958,21.17678368496757],[-101.64225660991607,21.176600909068558],[-101.64246618908925,21.176739125487533],[-101.64261334621911,21.17642249156796],[-101.64238145445937,21.176319960144777],[-101.64252409691417,21.17599441135758],[-101.64276493130464,21.176114868520795],[-101.64281398379974,21.176052419877976],[-101.64255977926322,21.175918644863007],[-101.64297893926373,21.17507144778793],[-101.64082073487224,21.17448724528754]]]},"id":"1_00000000000000000003","properties":{"Descriptio":"","Name":"Polígono 4  El Valladito","clase":"ladrillera","feature_id":"00000000000000000003","par_id":4.0}},{"type":"Feature","geometry":{"type":"Polygon","coordinates":[[[-101.63879635771616,21.17544599725499],[-101.63884089393423,21.175361284093636],[-101.63856447452056,21.175098140240205],[-101.63788671183268,21.17630661467667],[-101.63805165943243,21.17651611885917],[-101.63871162609502,21.17599886834242],[-101.63897467633433,21.175615418507792],[-101.63879635771616,21.17544599725499]]]},"id":"1_00000000000000000004","properties":{"Descriptio":"","Name":"Polígono 5 El Valladito","clase":"ladrillera","feature_id":"00000000000000000004","par_id":5.0}},{"type":"Feature","geometry":{"type":"Polygon","coordinates":[[[-101.70304747792673,21.210048604173473],[-101.70102310183368,21.20988364877818],[-101.70073765615851,21.212157713187008],[-101.70064853055425,21.212603620423266],[-101.70393484881028,21.213214576851723],[-101.70304747792673,21.210048604173473]]]},"id":"1_00000000000000000005","properties":{"Descriptio":"","Name":"Polígono 6 Ladrilleras de la Patiña","clase":"ladrillera","feature_id":"00000000000000000005","par_id":6.0}},{"type":"Feature","geometry":{"type":"Polygon","coordinates":[[[-101.55261527133499,21.08555047043773],[-101.55269550817448,21.084926187948607],[-101.55224071792615,21.0847122109455],[-101.55239234336514,21.084087869720328],[-101.55231202002108,21.084029934687454],[-101.55129982984978,21.08608556401459],[-101.55110813157914,21.08643781275551],[-101.55059531878526,21.086219388851873],[-101.54973468035645,21.08709776769155],[-101.5501003770748,21.087588316847786],[-101.54997104727478,21.087904922767194],[-101.54944930597904,21.087592745501382],[-101.54883839931158,21.087860300894256],[-101.54812497111116,21.08782464317213],[-101.5476121732704,21.089951593454625],[-101.54972574613134,21.090892539101898],[-101.54945381644932,21.091686178023664],[-101.55123737607511,21.09223912397092],[-101.55142473751349,21.091396355270962],[-101.55197320539969,21.091583646637556],[-101.55415817172658,21.086125743157968],[-101.55261527133499,21.08555047043773]]]},"id":"1_00000000000000000006","properties":{"Descriptio":"","Name":"Polígono 7 Ladrilleras del refugio","clase":"ladrillera","feature_id":"00000000000000000006","par_id":7.0}},{"type":"Feature","geometry":{"type":"Polygon","coordinates":[[[-101.63118467956143,21.170491891715365],[-101.63094387216569,21.170866442869315],[-101.63097503646537,21.170893223055078],[-101.630881456786,21.17109387112631],[-101.6310463931981,21.171196407636458],[-101.6311490011411,21.171035901211756],[-101.63177767233815,21.171294536634615],[-101.63204973311221,21.170928928237377],[-101.63118467956143,21.170491891715365]]]},"id":"1_00000000000000000007","properties":{"Descriptio":"","Name":"Polígono 8 La selva 2","clase":"ladrillera","feature_id":"00000000000000000007","par_id":8.0}},{"type":"Feature","geometry":{"type":"Polygon","coordinates":[[[-101.64484286747745,21.17314065655388],[-101.64440590183223,21.173947693953174],[-101.64573911731567,21.174277683159673],[-101.64614049181908,21.17353744475349],[-101.64484286747745,21.17314065655388]]]},"id":"2_00000000000000000000","properties":{"Descriptio":"","Name":"Polígono 1","clase":"suelo_desnudo","feature_id":"00000000000000000000","par_id":1.0}},{"type":"Feature","geometry":{"type":"Polygon","coordinates":[[[-101.6331377229455,21.16253241246325],[-101.63340084580189,21.162091003397848],[-101.63279881544405,21.161502317225217],[-101.63201405439297,21.162398659888623],[-101.63235738661893,21.162750909408384],[-101.633021831039,21.16328599131612],[-101.6334230693401,21.162920395355318],[-101.6331377229455,21.16253241246325]]]},"id":"2_00000000000000000001","properties":{"Descriptio":"","Name":"Polígono 2","clase":"suelo_desnudo","feature_id":"00000000000000000001","par_id":2.0}},{"type":"Feature","geometry":{"type":"Polygon","coordinates":[[[-101.64200692128186,21.168364875634147],[-101.64110167481313,21.167963569917152],[-101.64078062546213,21.167945792470785],[-101.64066021050843,21.168191039343878],[-101.64095009216672,21.168253447833877],[-101.64084747448761,21.16862800244681],[-101.64127114204412,21.168761765478564],[-101.64135587576381,21.168645862367676],[-101.64196229688156,21.16883315591529],[-101.6422877776287,21.168525477842863],[-101.64200692128186,21.168364875634147]]]},"id":"2_00000000000000000002","properties":{"Descriptio":"","Name":"Polígono 3","clase":"suelo_desnudo","feature_id":"00000000000000000002","par_id":3.0}},{"type":"Feature","geometry":{"type":"Polygon","coordinates":[[[-101.64054873781404,21.150840667934435],[-101.63812302105457,21.15302114965186],[-101.64128008422642,21.156066707550856],[-101.64310829925911,21.153716791981623],[-101.64054873781404,21.150840667934435]]]},"id":"2_00000000000000000003","properties":{"Descriptio":"","Name":"Polígono 4","clase":"suelo_desnudo","feature_id":"00000000000000000003","par_id":4.0}},{"type":"Feature","geometry":{"type":"Polygon","coordinates":[[[-101.64377272600093,21.162849046566887],[-101.64362556722074,21.162429823927127],[-101.64338915859827,21.16213998649335],[-101.64312166936183,21.162536905647663],[-101.64271145108872,21.163272632809097],[-101.64412938071595,21.16342423448448],[-101.64417843385844,21.163080905580546],[-101.64377272600093,21.162849046566887]]]},"id":"2_00000000000000000004","properties":{"Descriptio":"","Name":"Poligono 5","clase":"suelo_desnudo","feature_id":"00000000000000000004","par_id":5.0}},{"type":"Feature","geometry":{"type":"Polygon","coordinates":[[[-101.71373595714287,21.20762731560777],[-101.71242497724043,21.207457850863424],[-101.71250082075741,21.21180997949712],[-101.71554190457827,21.213392944950822],[-101.71689749341863,21.2135490293853],[-101.71718732742904,21.21170291846777],[-101.71749497286433,21.20928162342],[-101.71373595714287,21.20762731560777]]]},"id":"2_00000000000000000005","properties":{"Descriptio":"","Name":"Polígono 6","clase":"suelo_desnudo","feature_id":"00000000000000000005","par_id":6.0}},{"type":"Feature","geometry":{"type":"Polygon","coordinates":[[[-101.57512481974365,21.07303377654494],[-101.57070137739007,21.071464168795117],[-101.56993444121342,21.074946779372],[-101.57037143796761,21.077662358049533],[-101.57456295347164,21.078656711554817],[-101.57542354020192,21.077381412201824],[-101.57512481974365,21.07303377654494]]]},"id":"2_00000000000000000006","properties":{"Descriptio":"","Name":"Polígono 7","clase":"suelo_desnudo","feature_id":"00000000000000000006","par_id":7.0}},{"type":"Feature","geometry":{"type":"Polygon","coordinates":[[[-101.65244113827848,21.17347058753941],[-101.65200865550318,21.174384742482662],[-101.65244113827848,21.175263187505717],[-101.65292719515871,21.17559756594247],[-101.65325271041215,21.17518288965225],[-101.65377002910428,21.17551285331383],[-101.65494273190662,21.174175097982367],[-101.65244113827848,21.17347058753941]]]},"id":"2_00000000000000000007","properties":{"Descriptio":"","Name":"Polígono 8","clase":"suelo_desnudo","feature_id":"00000000000000000007","par_id":8.0}}]}